{"fetched_at":"2026-07-05T16:24:44.008Z","source":"https://celestrak.org/NORAD/elements/gp.php?NAME=WORLDVIEW&FORMAT=JSON","constellation":"worldview","records":[{"OBJECT_NAME":"WORLDVIEW-1 (WV-1)","OBJECT_ID":"2007-041A","EPOCH":"2026-07-05T06:40:47.743968","CLASSIFICATION_TYPE":"U","MEAN_MOTION":15.24479765,"ECCENTRICITY":0.00009271,"INCLINATION":97.3895,"RA_OF_ASC_NODE":305.766,"ARG_OF_PERICENTER":279.129,"MEAN_ANOMALY":80.9843,"EPHEMERIS_TYPE":0,"NORAD_CAT_ID":32060,"ELEMENT_SET_NO":999,"REV_AT_EPOCH":4563,"BSTAR":0.0004009618,"MEAN_MOTION_DOT":0.00009785,"MEAN_MOTION_DDOT":0},{"OBJECT_NAME":"WORLDVIEW-2 (WV-2)","OBJECT_ID":"2009-055A","EPOCH":"2026-07-05T04:28:38.647488","CLASSIFICATION_TYPE":"U","MEAN_MOTION":14.37905187,"ECCENTRICITY":0.00048327,"INCLINATION":98.476,"RA_OF_ASC_NODE":259.3905,"ARG_OF_PERICENTER":154.8241,"MEAN_ANOMALY":205.3182,"EPHEMERIS_TYPE":0,"NORAD_CAT_ID":35946,"ELEMENT_SET_NO":999,"REV_AT_EPOCH":87823,"BSTAR":0.000077644481,"MEAN_MOTION_DOT":0.00000191,"MEAN_MOTION_DDOT":0},{"OBJECT_NAME":"WORLDVIEW-3 (WV-3)","OBJECT_ID":"2014-048A","EPOCH":"2026-07-05T05:24:10.584864","CLASSIFICATION_TYPE":"U","MEAN_MOTION":14.85054221,"ECCENTRICITY":0.00004886,"INCLINATION":97.856,"RA_OF_ASC_NODE":260.8087,"ARG_OF_PERICENTER":167.4934,"MEAN_ANOMALY":192.6293,"EPHEMERIS_TYPE":0,"NORAD_CAT_ID":40115,"ELEMENT_SET_NO":999,"REV_AT_EPOCH":64458,"BSTAR":0.00014529031,"MEAN_MOTION_DOT":0.00001187,"MEAN_MOTION_DDOT":0}]}
